{"type": "FeatureCollection", "features": [ {"type": "Feature", "properties": {"norad_id": 43565, "name": "GSAT0222 (GALILEO 26)", "group": "gnss", "lat": -49.246453203836474, "lon": -61.9507754915051, "alt_km": 23211.762410162097, "timestamp": "2025-12-27T07:26:25.465136+00:00", "meta": {"OBJECT_NAME": "GSAT0222 (GALILEO 26)", "OBJECT_ID": "2018-060B", "EPOCH": "2025-12-26T05:47:51.912384", "MEAN_MOTION": 1.7047535, "ECCENTRICITY": 0.0006025, "INCLINATION": 57.2282, "RA_OF_ASC_NODE": 346.4561, "ARG_OF_PERICENTER": 267.9285, "MEAN_ANOMALY": 92.0117, "EPHEMERIS_TYPE": 0, "CLASSIFICATION_TYPE": "U", "NORAD_CAT_ID": 43565, "ELEMENT_SET_NO": 999, "REV_AT_EPOCH": 4626, "BSTAR": 0, "MEAN_MOTION_DOT": -6e-07, "MEAN_MOTION_DDOT": 0}, "tle": {"line1": "1 43565U 18060B   25360.24157306 -.00000060  00000+0  00000+0 0  9997", "line2": "2 43565  57.2282 346.4561 0006025 267.9285  92.0117  1.70475350 46262"}}, "geometry": {"type": "Point", "coordinates": [-61.9507754915051, -49.246453203836474]}}, {"type": "Feature", "properties": {"norad_id": 43566, "name": "GSAT0219 (GALILEO 23)", "group": "gnss", "lat": 16.75324573463881, "lon": 155.2384146294762, "alt_km": 23231.88790388472, "timestamp": "2025-12-27T07:26:25.465154+00:00", "meta": {"OBJECT_NAME": "GSAT0219 (GALILEO 23)", "OBJECT_ID": "2018-060C", "EPOCH": "2025-12-26T11:06:17.532288", "MEAN_MOTION": 1.70475524, "ECCENTRICITY": 0.00059076, "INCLINATION": 57.2273, "RA_OF_ASC_NODE": 346.4517, "ARG_OF_PERICENTER": 292.2386, "MEAN_ANOMALY": 67.708, "EPHEMERIS_TYPE": 0, "CLASSIFICATION_TYPE": "U", "NORAD_CAT_ID": 43566, "ELEMENT_SET_NO": 999, "REV_AT_EPOCH": 4624, "BSTAR": 0, "MEAN_MOTION_DOT": -6e-07, "MEAN_MOTION_DDOT": 0}, "tle": {"line1": "1 43566U 18060C   25360.46270292 -.00000060  00000+0  00000+0 0  9992", "line2": "2 43566  57.2273 346.4517 0005907 292.2386  67.7080  1.70475524 46244"}}, "geometry": {"type": "Point", "coordinates": [155.2384146294762, 16.75324573463881]}}, {"type": "Feature", "properties": {"norad_id": 43567, "name": "GSAT0220 (GALILEO 24)", "group": "gnss", "lat": 20.35167500104169, "lon": 0.24342582160012952, "alt_km": 23221.519761946238, "timestamp": "2025-12-27T07:26:25.465171+00:00", "meta": {"OBJECT_NAME": "GSAT0220 (GALILEO 24)", "OBJECT_ID": "2018-060D", "EPOCH": "2025-12-23T03:56:18.956256", "MEAN_MOTION": 1.70475727, "ECCENTRICITY": 0.00061193, "INCLINATION": 57.2279, "RA_OF_ASC_NODE": 346.5416, "ARG_OF_PERICENTER": 288.3355, "MEAN_ANOMALY": 71.6054, "EPHEMERIS_TYPE": 0, "CLASSIFICATION_TYPE": "U", "NORAD_CAT_ID": 43567, "ELEMENT_SET_NO": 999, "REV_AT_EPOCH": 4617, "BSTAR": 0, "MEAN_MOTION_DOT": -6.3e-07, "MEAN_MOTION_DDOT": 0}, "tle": {"line1": "1 43567U 18060D   25357.16410829 -.00000063  00000+0  00000+0 0  9991", "line2": "2 43567  57.2279 346.5416 0006119 288.3355  71.6054  1.70475727 46170"}}, "geometry": {"type": "Point", "coordinates": [0.24342582160012952, 20.35167500104169]}}, {"type": "Feature", "properties": {"norad_id": 43581, "name": "BEIDOU-3 M5 (C23)", "group": "gnss", "lat": 15.50693796387387, "lon": -160.24796883041176, "alt_km": 21521.424446422017, "timestamp": "2025-12-27T07:26:25.465189+00:00", "meta": {"OBJECT_NAME": "BEIDOU-3 M5 (C23)", "OBJECT_ID": "2018-062A", "EPOCH": "2025-12-26T04:58:35.647392", "MEAN_MOTION": 1.86228653, "ECCENTRICITY": 0.00019141, "INCLINATION": 54.0903, "RA_OF_ASC_NODE": 188.1851, "ARG_OF_PERICENTER": 0.5751, "MEAN_ANOMALY": 359.4593, "EPHEMERIS_TYPE": 0, "CLASSIFICATION_TYPE": "U", "NORAD_CAT_ID": 43581, "ELEMENT_SET_NO": 999, "REV_AT_EPOCH": 5041, "BSTAR": 0, "MEAN_MOTION_DOT": 1.19e-06, "MEAN_MOTION_DDOT": 0}, "tle": {"line1": "1 43581U 18062A   25360.20735703  .00000119  00000+0  00000+0 0  9990", "line2": "2 43581  54.0903 188.1851 0001914   0.5751 359.4593  1.86228653 50418"}}, "geometry": {"type": "Point", "coordinates": [-160.24796883041176, 15.50693796387387]}}, {"type": "Feature", "properties": {"norad_id": 43582, "name": "BEIDOU-3 M6 (C24)", "group": "gnss", "lat": 48.965922157762314, "lon": -48.25593637169841, "alt_km": 21511.989404876276, "timestamp": "2025-12-27T07:26:25.465210+00:00", "meta": {"OBJECT_NAME": "BEIDOU-3 M6 (C24)", "OBJECT_ID": "2018-062B", "EPOCH": "2025-12-23T22:08:28.739040", "MEAN_MOTION": 1.86229712, "ECCENTRICITY": 0.00078704, "INCLINATION": 54.0895, "RA_OF_ASC_NODE": 188.252, "ARG_OF_PERICENTER": 49.2706, "MEAN_ANOMALY": 310.8346, "EPHEMERIS_TYPE": 0, "CLASSIFICATION_TYPE": "U", "NORAD_CAT_ID": 43582, "ELEMENT_SET_NO": 999, "REV_AT_EPOCH": 5037, "BSTAR": 0, "MEAN_MOTION_DOT": 1e-06, "MEAN_MOTION_DDOT": 0}, "tle": {"line1": "1 43582U 18062B   25357.92255485  .00000100  00000+0  00000+0 0  9990", "line2": "2 43582  54.0895 188.2520 0007870  49.2706 310.8346  1.86229712 50379"}}, "geometry": {"type": "Point", "coordinates": [-48.25593637169841, 48.965922157762314]}}, {"type": "Feature", "properties": {"norad_id": 43602, "name": "BEIDOU-3 M12 (C26)", "group": "gnss", "lat": 21.65445435534706, "lon": -9.795936550688397, "alt_km": 21534.975809969226, "timestamp": "2025-12-27T07:26:25.465236+00:00", "meta": {"OBJECT_NAME": "BEIDOU-3 M12 (C26)", "OBJECT_ID": "2018-067A", "EPOCH": "2025-12-26T13:05:12.985152", "MEAN_MOTION": 1.86227811, "ECCENTRICITY": 0.0009236, "INCLINATION": 54.1838, "RA_OF_ASC_NODE": 186.8947, "ARG_OF_PERICENTER": 41.8469, "MEAN_ANOMALY": 318.2561, "EPHEMERIS_TYPE": 0, "CLASSIFICATION_TYPE": "U", "NORAD_CAT_ID": 43602, "ELEMENT_SET_NO": 999, "REV_AT_EPOCH": 4990, "BSTAR": 0, "MEAN_MOTION_DOT": 1.23e-06, "MEAN_MOTION_DDOT": 0}, "tle": {"line1": "1 43602U 18067A   25360.54528918  .00000123  00000+0  00000+0 0  9999", "line2": "2 43602  54.1838 186.8947 0009236  41.8469 318.2561  1.86227811 49905"}}, "geometry": {"type": "Point", "coordinates": [-9.795936550688397, 21.65445435534706]}}, {"type": "Feature", "properties": {"norad_id": 43603, "name": "BEIDOU-3 M11 (C25)", "group": "gnss", "lat": 46.015387785008556, "lon": -124.70356205334771, "alt_km": 21508.59672566929, "timestamp": "2025-12-27T07:26:25.465256+00:00", "meta": {"OBJECT_NAME": "BEIDOU-3 M11 (C25)", "OBJECT_ID": "2018-067B", "EPOCH": "2025-12-24T12:46:04.310976", "MEAN_MOTION": 1.86227356, "ECCENTRICITY": 0.00056287, "INCLINATION": 54.181, "RA_OF_ASC_NODE": 186.927, "ARG_OF_PERICENTER": 37.873, "MEAN_ANOMALY": 322.1992, "EPHEMERIS_TYPE": 0, "CLASSIFICATION_TYPE": "U", "NORAD_CAT_ID": 43603, "ELEMENT_SET_NO": 999, "REV_AT_EPOCH": 4989, "BSTAR": 0, "MEAN_MOTION_DOT": 1.05e-06, "MEAN_MOTION_DDOT": 0}, "tle": {"line1": "1 43603U 18067B   25358.53199434  .00000105  00000+0  00000+0 0  9993", "line2": "2 43603  54.1810 186.9270 0005628  37.8730 322.1992  1.86227356 49897"}}, "geometry": {"type": "Point", "coordinates": [-124.70356205334771, 46.015387785008556]}}, {"type": "Feature", "properties": {"norad_id": 43622, "name": "BEIDOU-3 M13 (C32)", "group": "gnss", "lat": 56.447368443665724, "lon": 161.4284652986661, "alt_km": 21537.745707427406, "timestamp": "2025-12-27T07:26:25.465274+00:00", "meta": {"OBJECT_NAME": "BEIDOU-3 M13 (C32)", "OBJECT_ID": "2018-072A", "EPOCH": "2025-12-26T15:16:14.790720", "MEAN_MOTION": 1.86231078, "ECCENTRICITY": 0.0006463, "INCLINATION": 56.4705, "RA_OF_ASC_NODE": 68.3604, "ARG_OF_PERICENTER": 297.862, "MEAN_ANOMALY": 62.1239, "EPHEMERIS_TYPE": 0, "CLASSIFICATION_TYPE": "U", "NORAD_CAT_ID": 43622, "ELEMENT_SET_NO": 999, "REV_AT_EPOCH": 4944, "BSTAR": 0, "MEAN_MOTION_DOT": -3.2e-07, "MEAN_MOTION_DDOT": 0}, "tle": {"line1": "1 43622U 18072A   25360.63628230 -.00000032  00000+0  00000+0 0  9995", "line2": "2 43622  56.4705  68.3604 0006463 297.8620  62.1239  1.86231078 49446"}}, "geometry": {"type": "Point", "coordinates": [161.4284652986661, 56.447368443665724]}}, {"type": "Feature", "properties": {"norad_id": 43623, "name": "BEIDOU-3 M14 (C33)", "group": "gnss", "lat": -1.5932128826311307, "lon": -110.59736519704678, "alt_km": 21536.788697592867, "timestamp": "2025-12-27T07:26:25.465291+00:00", "meta": {"OBJECT_NAME": "BEIDOU-3 M14 (C33)", "OBJECT_ID": "2018-072B", "EPOCH": "2025-12-23T06:43:13.861056", "MEAN_MOTION": 1.86231163, "ECCENTRICITY": 0.00035931, "INCLINATION": 56.4696, "RA_OF_ASC_NODE": 68.4654, "ARG_OF_PERICENTER": 327.0772, "MEAN_ANOMALY": 32.9541, "EPHEMERIS_TYPE": 0, "CLASSIFICATION_TYPE": "U", "NORAD_CAT_ID": 43623, "ELEMENT_SET_NO": 999, "REV_AT_EPOCH": 4937, "BSTAR": 0, "MEAN_MOTION_DOT": -2.6e-07, "MEAN_MOTION_DDOT": 0}, "tle": {"line1": "1 43623U 18072B   25357.28002154 -.00000026  00000+0  00000+0 0  9997", "line2": "2 43623  56.4696  68.4654 0003593 327.0772  32.9541  1.86231163 49375"}}, "geometry": {"type": "Point", "coordinates": [-110.59736519704678, -1.5932128826311307]}}, {"type": "Feature", "properties": {"norad_id": 43647, "name": "BEIDOU-3 M16 (C35)", "group": "gnss", "lat": 52.06319377319217, "lon": 13.397939178313694, "alt_km": 21510.0010356804, "timestamp": "2025-12-27T07:26:25.465308+00:00", "meta": {"OBJECT_NAME": "BEIDOU-3 M16 (C35)", "OBJECT_ID": "2018-078A", "EPOCH": "2025-12-26T02:56:19.347360", "MEAN_MOTION": 1.86232218, "ECCENTRICITY": 0.0007499, "INCLINATION": 54.2494, "RA_OF_ASC_NODE": 306.0535, "ARG_OF_PERICENTER": 20.7112, "MEAN_ANOMALY": 339.3289, "EPHEMERIS_TYPE": 0, "CLASSIFICATION_TYPE": "U", "NORAD_CAT_ID": 43647, "ELEMENT_SET_NO": 999, "REV_AT_EPOCH": 4893, "BSTAR": 0, "MEAN_MOTION_DOT": -5.5e-07, "MEAN_MOTION_DDOT": 0}, "tle": {"line1": "1 43647U 18078A   25360.12244615 -.00000055  00000+0  00000+0 0  9998", "line2": "2 43647  54.2494 306.0535 0007499  20.7112 339.3289  1.86232218 48932"}}, "geometry": {"type": "Point", "coordinates": [13.397939178313694, 52.06319377319217]}}]}